ONEWEB-0020             
1 45133U 20008C   26009.52804210  .00000683  00000+0  19202-2 0  9997
2 45133  87.8780  67.8890 0001787 107.3072 252.8251 13.10374066287561
ONEWEB-0021             
1 45134U 20008D   26009.61933335  .00000318  00000+0  87499-3 0  9998
2 45134  87.8769  67.8992 0001738  96.6812 263.4514 13.10370496287888
ONEWEB-0023             
1 45136U 20008F   26009.63010867 -.00000299  00000+0 -89361-3 0  9998
2 45136  87.8770  67.8775 0001709  99.1634 260.9687 13.10369826287315
ONEWEB-0024             
1 45137U 20008G   26009.60273973  .00000666  00000+0  18701-2 0  9990
2 45137  87.8795  67.8589 0001688  99.2935 260.8383 13.10373658287474
ONEWEB-0025             
1 45138U 20008H   26009.62016262  .00000231  00000+0  62465-3 0  9994
2 45138  87.8779  67.8556 0002022  95.1196 265.0162 13.10369680287807
ONEWEB-0026             
1 45139U 20008J   26009.61386620 -.00000287  00000+0 -84636-3 0  9999
2 45139  87.8829  52.6352 0001644 100.7847 259.3466 13.11418391290324
ONEWEB-0028             
1 45140U 20008K   26009.64694727  .00000460  00000+0  12634-2 0  9993
2 45140  87.8823  52.6409 0002346  88.7810 271.3587 13.11415913287846
ONEWEB-0032             
1 45141U 20008L   26009.63591436 -.00000467  00000+0 -13728-2 0  9990
2 45141  87.8778  67.8801 0001947  98.6918 261.4430 13.10370336287536
